start=new Date('2022-12-10T00:00:00.000Z').valueOf();
sats=[{"TIME_SYSTEM":"UTC","EPHEMERIS_TYPE":"0","CLASSIFICATION_TYPE":"U","ECCENTRICITY":"0.00021400","PERIOD":"95.595","SITE":"AFETR","GP_ID":"219841738","SEMIMAJOR_AXIS":"6925.467","RCS_SIZE":"LARGE","FILE":"3685263","EPOCH":"2022-12-09T07:54:41.791968","TLE_LINE1":"1 48148U 21027BJ  22343.32965037 -.00001465  00000-0 -79564-4 0  9999","APOAPSIS":"548.814","LAUNCH_DATE":"2021-04-07","BSTAR":"-0.00007956400000","TLE_LINE2":"2 48148  53.0562  97.3926 0002140 349.2901  10.8042 15.06361398 93592","MEAN_ANOMALY":"10.8042","NORAD_CAT_ID":"48148","OBJECT_TYPE":"PAYLOAD","RA_OF_ASC_NODE":"97.3926","MEAN_MOTION_DDOT":"0.0000000000000","OBJECT_NAME":"STARLINK-2491","ARG_OF_PERICENTER":"349.2901","DECAY_DATE":null,"MEAN_MOTION_DOT":"-0.00001465","MEAN_MOTION":"15.06361398","ELEMENT_SET_NO":"999","MEAN_ELEMENT_THEORY":"SGP4","CENTER_NAME":"EARTH","COUNTRY_CODE":"US","REV_AT_EPOCH":"9359","PERIAPSIS":"545.850","OBJECT_ID":"2021-027BJ","REF_FRAME":"TEME","INCLINATION":"53.0562"},{"MEAN_ANOMALY":"338.9479","BSTAR":"0.00233660000000","TLE_LINE2":"2 48149  53.0557  75.5632 0000836  21.1544 338.9479 15.06628990 93545","LAUNCH_DATE":"2021-04-07","TLE_LINE1":"1 48149U 21027BK  22343.74040876  .00034911  00000-0  23366-2 0  9998","APOAPSIS":"547.091","EPOCH":"2022-12-09T17:46:11.316864","FILE":"3685714","RCS_SIZE":"LARGE","GP_ID":"219855332","SEMIMAJOR_AXIS":"6924.647","SITE":"AFETR","PERIOD":"95.578","CLASSIFICATION_TYPE":"U","ECCENTRICITY":"0.00008360","EPHEMERIS_TYPE":"0","TIME_SYSTEM":"UTC","INCLINATION":"53.0557","REF_FRAME":"TEME","OBJECT_ID":"2021-027BK","PERIAPSIS":"545.933","REV_AT_EPOCH":"9354","CENTER_NAME":"EARTH","COUNTRY_CODE":"US","MEAN_ELEMENT_THEORY":"SGP4","MEAN_MOTION":"15.06628990","ELEMENT_SET_NO":"999","MEAN_MOTION_DOT":"0.00034911","DECAY_DATE":null,"ARG_OF_PERICENTER":"21.1544","OBJECT_NAME":"STARLINK-2492","MEAN_MOTION_DDOT":"0.0000000000000","RA_OF_ASC_NODE":"75.5632","NORAD_CAT_ID":"48149","OBJECT_TYPE":"PAYLOAD"},{"OBJECT_ID":"2021-027BL","PERIAPSIS":"545.880","REV_AT_EPOCH":"9391","INCLINATION":"53.0550","REF_FRAME":"TEME","OBJECT_NAME":"STARLINK-2493","RA_OF_ASC_NODE":"76.7220","MEAN_MOTION_DDOT":"0.0000000000000","OBJECT_TYPE":"PAYLOAD","NORAD_CAT_ID":"48150","CENTER_NAME":"EARTH","COUNTRY_CODE":"US","MEAN_ELEMENT_THEORY":"SGP4","ELEMENT_SET_NO":"999","MEAN_MOTION":"15.06391402","MEAN_MOTION_DOT":"-0.00002201","DECAY_DATE":null,"ARG_OF_PERICENTER":"25.8184","TLE_LINE2":"2 48150  53.0550  76.7220 0001963  25.8184 334.2902 15.06391402 93915","BSTAR":"-0.00012890000000","LAUNCH_DATE":"2021-04-07","TLE_LINE1":"1 48150U 21027BL  22343.47890774 -.00002201  00000-0 -12890-3 0  9990","APOAPSIS":"548.599","EPOCH":"2022-12-09T11:29:37.628736","FILE":"3685263","RCS_SIZE":"LARGE","MEAN_ANOMALY":"334.2902","PERIOD":"95.593","ECCENTRICITY":"0.00019630","CLASSIFICATION_TYPE":"U","EPHEMERIS_TYPE":"0","TIME_SYSTEM":"UTC","GP_ID":"219840236","SEMIMAJOR_AXIS":"6925.375","SITE":"AFETR"},{"ARG_OF_PERICENTER":"25.0097","DECAY_DATE":null,"MEAN_MOTION_DOT":"-0.00000829","ELEMENT_SET_NO":"999","MEAN_MOTION":"15.06398802","CENTER_NAME":"EARTH","COUNTRY_CODE":"US","MEAN_ELEMENT_THEORY":"SGP4","RA_OF_ASC_NODE":"75.5313","MEAN_MOTION_DDOT":"0.0000000000000","NORAD_CAT_ID":"48151","OBJECT_TYPE":"PAYLOAD","OBJECT_NAME":"STARLINK-2503","INCLINATION":"53.0552","REF_FRAME":"TEME","REV_AT_EPOCH":"9355","PERIAPSIS":"545.905","OBJECT_ID":"2021-027BM","SITE":"AFETR","SEMIMAJOR_AXIS":"6925.352","GP_ID":"219855681","TIME_SYSTEM":"UTC","ECCENTRICITY":"0.00018950","CLASSIFICATION_TYPE":"U","EPHEMERIS_TYPE":"0","PERIOD":"95.592","MEAN_ANOMALY":"335.0983","FILE":"3685735","RCS_SIZE":"MEDIUM","TLE_LINE1":"1 48151U 21027BM  22343.74798273 -.00000829  00000-0 -36721-4 0  9996","EPOCH":"2022-12-09T17:57:05.707872","APOAPSIS":"548.530","LAUNCH_DATE":"2021-04-07","BSTAR":"-0.00003672100000","TLE_LINE2":"2 48151  53.0552  75.5313 0001895  25.0097 335.0983 15.06398802 93556"},{"DECAY_DATE":null,"ARG_OF_PERICENTER":"55.6129","MEAN_MOTION_DOT":"-0.00003377","ELEMENT_SET_NO":"999","MEAN_MOTION":"15.06380365","MEAN_ELEMENT_THEORY":"SGP4","CENTER_NAME":"EARTH","COUNTRY_CODE":"US","OBJECT_TYPE":"PAYLOAD","NORAD_CAT_ID":"48276","RA_OF_ASC_NODE":"330.3499","MEAN_MOTION_DDOT":"0.0000000000000","OBJECT_NAME":"STARLINK-2567","REF_FRAME":"TEME","INCLINATION":"53.0533","REV_AT_EPOCH":"9064","PERIAPSIS":"545.794","OBJECT_ID":"2021-036A","SITE":"AFETR","SEMIMAJOR_AXIS":"6925.409","GP_ID":"219845699","TIME_SYSTEM":"UTC","EPHEMERIS_TYPE":"0","ECCENTRICITY":"0.00021360","CLASSIFICATION_TYPE":"U","PERIOD":"95.593","MEAN_ANOMALY":"304.5062","RCS_SIZE":"LARGE","FILE":"3685284","TLE_LINE1":"1 48276U 21036A   22343.78899644 -.00003377  00000-0 -20802-3 0  9995","APOAPSIS":"548.753","EPOCH":"2022-12-09T18:56:09.292416","LAUNCH_DATE":"2021-04-29","BSTAR":"-0.00020802000000","TLE_LINE2":"2 48276  53.0533 330.3499 0002136  55.6129 304.5062 15.06380365 90645"},{"TLE_LINE2":"2 48277  53.0559 297.7236 0001438  70.5695 289.5449 15.06410480 90471","BSTAR":"0.00026568000000","LAUNCH_DATE":"2021-04-29","EPOCH":"2022-12-09T06:13:48.191520","TLE_LINE1":"1 48277U 21036B   22343.25958555  .00003679  00000-0  26568-3 0  9993","APOAPSIS":"548.177","RCS_SIZE":"LARGE","FILE":"3685263","MEAN_ANOMALY":"289.5449","PERIOD":"95.591","EPHEMERIS_TYPE":"0","ECCENTRICITY":"0.00014380","CLASSIFICATION_TYPE":"U","TIME_SYSTEM":"UTC","GP_ID":"219841751","SEMIMAJOR_AXIS":"6925.316","SITE":"AFETR","OBJECT_ID":"2021-036B","PERIAPSIS":"546.186","REV_AT_EPOCH":"9047","REF_FRAME":"TEME","INCLINATION":"53.0559","OBJECT_NAME":"STARLINK-2569","OBJECT_TYPE":"PAYLOAD","NORAD_CAT_ID":"48277","RA_OF_ASC_NODE":"297.7236","MEAN_MOTION_DDOT":"0.0000000000000","MEAN_ELEMENT_THEORY":"SGP4","COUNTRY_CODE":"US","CENTER_NAME":"EARTH","ELEMENT_SET_NO":"999","MEAN_MOTION":"15.06410480","MEAN_MOTION_DOT":"0.00003679","DECAY_DATE":null,"ARG_OF_PERICENTER":"70.5695"},{"TLE_LINE2":"2 48278  53.0571 311.4343 0001321  54.0207 306.0905 15.06378456 90889","BSTAR":"-0.00027695000000","LAUNCH_DATE":"2021-04-29","TLE_LINE1":"1 48278U 21036C   22343.56232799 -.00004402  00000-0 -27695-3 0  9992","APOAPSIS":"548.194","EPOCH":"2022-12-09T13:29:45.138336","RCS_SIZE":"LARGE","FILE":"3685284","MEAN_ANOMALY":"306.0905","PERIOD":"95.594","EPHEMERIS_TYPE":"0","CLASSIFICATION_TYPE":"U","ECCENTRICITY":"0.00013210","TIME_SYSTEM":"UTC","GP_ID":"219845696","SEMIMAJOR_AXIS":"6925.415","SITE":"AFETR","OBJECT_ID":"2021-036C","PERIAPSIS":"546.365","REV_AT_EPOCH":"9088","REF_FRAME":"TEME","INCLINATION":"53.0571","OBJECT_NAME":"STARLINK-2543","OBJECT_TYPE":"PAYLOAD","NORAD_CAT_ID":"48278","MEAN_MOTION_DDOT":"0.0000000000000","RA_OF_ASC_NODE":"311.4343","MEAN_ELEMENT_THEORY":"SGP4","COUNTRY_CODE":"US","CENTER_NAME":"EARTH","ELEMENT_SET_NO":"999","MEAN_MOTION":"15.06378456","MEAN_MOTION_DOT":"-0.00004402","DECAY_DATE":null,"ARG_OF_PERICENTER":"54.0207"},{"SITE":"AFETR","SEMIMAJOR_AXIS":"6925.331","GP_ID":"219840249","TIME_SYSTEM":"UTC","EPHEMERIS_TYPE":"0","ECCENTRICITY":"0.00016910","CLASSIFICATION_TYPE":"U","PERIOD":"95.592","MEAN_ANOMALY":"292.7314","RCS_SIZE":"LARGE","FILE":"3685263","TLE_LINE1":"1 48279U 21036D   22343.22318950  .00000764  00000-0  70205-4 0  9991","APOAPSIS":"548.367","EPOCH":"2022-12-09T05:21:23.572800","LAUNCH_DATE":"2021-04-29","BSTAR":"0.00007020500000","TLE_LINE2":"2 48279  53.0556 312.8721 0001691  67.3854 292.7314 15.06405611 90253","DECAY_DATE":null,"ARG_OF_PERICENTER":"67.3854","MEAN_MOTION_DOT":"0.00000764","MEAN_MOTION":"15.06405611","ELEMENT_SET_NO":"999","MEAN_ELEMENT_THEORY":"SGP4","CENTER_NAME":"EARTH","COUNTRY_CODE":"US","OBJECT_TYPE":"PAYLOAD","NORAD_CAT_ID":"48279","RA_OF_ASC_NODE":"312.8721","MEAN_MOTION_DDOT":"0.0000000000000","OBJECT_NAME":"STARLINK-2580","REF_FRAME":"TEME","INCLINATION":"53.0556","REV_AT_EPOCH":"9025","PERIAPSIS":"546.025","OBJECT_ID":"2021-036D"},{"MEAN_ANOMALY":"307.9225","RCS_SIZE":"LARGE","FILE":"3685300","EPOCH":"2022-12-09T13:09:48.196800","TLE_LINE1":"1 48280U 21036E   22343.54847450 -.00004457  00000-0 -28053-3 0  9998","APOAPSIS":"548.221","LAUNCH_DATE":"2021-04-29","BSTAR":"-0.00028053000000","TLE_LINE2":"2 48280  53.0549  21.4201 0001438  52.1894 307.9225 15.06396308 89900","SITE":"AFETR","SEMIMAJOR_AXIS":"6925.360","GP_ID":"219846071","TIME_SYSTEM":"UTC","EPHEMERIS_TYPE":"0","CLASSIFICATION_TYPE":"U","ECCENTRICITY":"0.00014380","PERIOD":"95.592","REF_FRAME":"TEME","INCLINATION":"53.0549","REV_AT_EPOCH":"8990","PERIAPSIS":"546.229","OBJECT_ID":"2021-036E","ARG_OF_PERICENTER":"52.1894","DECAY_DATE":null,"MEAN_MOTION_DOT":"-0.00004457","ELEMENT_SET_NO":"999","MEAN_MOTION":"15.06396308","MEAN_ELEMENT_THEORY":"SGP4","CENTER_NAME":"EARTH","COUNTRY_CODE":"US","NORAD_CAT_ID":"48280","OBJECT_TYPE":"PAYLOAD","RA_OF_ASC_NODE":"21.4201","MEAN_MOTION_DDOT":"0.0000000000000","OBJECT_NAME":"STARLINK-2565"},{"GP_ID":"219841251","SEMIMAJOR_AXIS":"6925.348","SITE":"AFETR","PERIOD":"95.592","TIME_SYSTEM":"UTC","EPHEMERIS_TYPE":"0","ECCENTRICITY":"0.00008280","CLASSIFICATION_TYPE":"U","MEAN_ANOMALY":"66.1713","LAUNCH_DATE":"2021-04-29","TLE_LINE2":"2 48281  53.0570   1.6573 0000828 293.9189  66.1713 15.06400180 89596","BSTAR":"0.00009995900000","RCS_SIZE":"LARGE","FILE":"3685263","TLE_LINE1":"1 48281U 21036F   22343.49502673  .00001208  00000-0  99959-4 0  9991","APOAPSIS":"547.786","EPOCH":"2022-12-09T11:52:50.309472","MEAN_MOTION":"15.06400180","ELEMENT_SET_NO":"999","MEAN_ELEMENT_THEORY":"SGP4","CENTER_NAME":"EARTH","COUNTRY_CODE":"US","ARG_OF_PERICENTER":"293.9189","DECAY_DATE":null,"MEAN_MOTION_DOT":"0.00001208","OBJECT_NAME":"STARLINK-2520","OBJECT_TYPE":"PAYLOAD","NORAD_CAT_ID":"48281","RA_OF_ASC_NODE":"1.6573","MEAN_MOTION_DDOT":"0.0000000000000","REF_FRAME":"TEME","INCLINATION":"53.0570","OBJECT_ID":"2021-036F","REV_AT_EPOCH":"8959","PERIAPSIS":"546.640"}];
